#dP2022 11 24  0  0  0.00000000      96 __u+U ITR00 EXT  IAC
## 2237 345600.00000000   900.00000000 59907 0.0000000000000
+  117   C06C07C08C09C10C11C12C13C14C16C19C20C21C22C23C24C25
+        C26C27C28C29C30C32C33C34C35C36C37C38C39C40C41C42C43
+        C44C45C46E01E02E03E05E07E08E09E10E11E12E13E14E15E18
+        E19E21E24E25E26E27E30E31E33E34E36G01G02G03G04G05G06
+        G07G08G09G10G11G12G13G14G15G16G17G18G19G20G21G22G23
+        G24G25G26G27G29G30G31G32J02J03J04R01R02R03R04R05R07
+        R08R09R11R12R13R14R15R17R18R19R20R21R22R24R25  0  0
++         9  9  8  8  9  8  7 10  8  9  8  9  7  9  8  8  8
++         7  8  9  9  9  8  9  8  8 10  8 10  9 11  9 10  8
++         8  9  9  8  8  7  7  9  8  6  9  8  8  7  8  7  9
++         7  7  8  7  7  7  7  8  8  8  8  6  7  8  8  6  7
++         8  9  7  8  8  7  8  6  8  7  8  8  8  8  8  9  6
++         8  7  6 11  8  7  8  9  9  8 10  8  9  9  8  9  7
++         9 10  9  9 10  9 10  7  8  8  9  9  9  8  8  0  0
%c M  cc GPS ccc cccc cccc cccc cccc ccccc ccccc ccccc ccccc
%c cc cc ccc ccc cccc cccc cccc cccc ccccc ccccc ccccc ccccc
%f  0.0000000  0.000000000  0.00000000000  0.000000000000000
%f  0.0000000  0.000000000  0.00000000000  0.000000000000000
%i    0    0    0    0      0      0      0      0         0
%i    0    0    0    0      0      0      0      0         0
/* IAC                                ULTRA-RAPID PREDICTION
/* S/V CLOCKS ARE ALIGNED TO GNSS TIME                      
/* G:C1WC2W R:C1PC2P E:C1XC5X C:C2IC6I J:C1CC2S             
/* PCV:IGS14_2233 OL/AL:FES2004  NONE     YN ORB:CoN CLK:CoN
*  2022 11 24  3 45  0.00000000
PC06    120.825114  33322.427870  25977.544123     -5.813561
PC07 -14646.223347  27443.209625 -28478.049727    171.116882
PC08 -14713.824233  39230.009545   3728.173557    515.689024
PC09   6251.469249  37042.313618  20024.532194   -799.484962
PC10  -6444.323568  27778.049065 -30868.222448     63.214053
PC11 -17348.965329 -21809.701694   1823.361744   -274.783142
PC12  -3710.329609 -21511.478975  17439.150526    315.051391
PC13  -8142.894284  39549.462956  11735.240179    141.083250
PC14 -15130.050863 -11092.695361 -20662.662325    203.517675
PC16  -4223.351870  30049.862030  29570.454678    112.452657
PC19  22967.748702   5221.922227  14974.858000   -910.624180
PC20   6656.532319  14523.846593  22883.739578    827.977224
PC21  14901.183805 -15733.196716 -17567.406429   -888.592995
PC22  26789.145870  -7521.794490  -2013.029517   -776.953595
PC23 -17609.369476   9886.056886  19256.650627   -875.222224
PC24   -485.621647 -25553.374787  11230.061176   -765.745281
PC25 -13779.423964  -9773.139702  22205.763787     29.254564
PC26  10587.921488 -25464.166521  -4418.783089    -40.268948
PC27  -4558.530224  17222.366501 -21496.955586     56.000720
PC28 -18089.655082   1877.186943 -21160.031045     39.481077
PC29  22203.405724  15010.525955   7772.076938     44.622084
PC30  12234.651910  22866.771565 -10331.712523      1.043776
PC32 -14877.232257  15848.428194  17509.127041   -706.822118
PC33 -22949.553965  -5156.139388 -15024.181499   -905.841743
PC34 -13102.485506 -22813.494070   9271.746681     46.086782
PC35  18950.224467  -1018.351278  20464.690800    102.222538
PC36  13251.628156  10724.190521 -22071.175081   -817.990178
PC37 -11897.465538  24579.935595   5681.084161   -908.566390
PC38 -18067.051582  37781.420073  -3958.821099     40.255526
PC39  -6591.382161  27071.462656  31718.338251     -0.933369
PC40 -21811.956281  20945.215793 -29473.191636     -8.753322
PC41 -26890.679183   7307.879772   1493.786100   -308.057176
PC42  -5343.699688 -14931.443065 -22925.308977   -721.721481
PC43 -22039.982345 -15584.876080  -7044.471055     26.579350
PC44   4235.656360 -17304.819174  21463.936613    123.593024
PC45  17504.228320 -10348.216862 -19126.598073    -26.238567
PC46   1787.878552  24711.651842 -12798.579962    -15.053261
PE01 -18070.267083  -4837.963467  22940.730527   -568.986985
PE02  18262.365724   4579.524923 -22846.667621      4.461597
PE03  27395.407035  10859.177336   2737.323906   -623.032251
PE05  13216.518979  18379.487505  19066.852444   -121.668035
PE07   8436.801388 -15077.605393 -24037.081428     -1.750422
PE08  25470.948225  -2699.154759 -14838.980136   -637.420143
PE09  -8599.661587  14861.817177  24105.342854   -740.002596
PE10 -10618.713507  16977.437953 -21796.113649   -492.987667
PE11  -4296.480965  25303.915393 -14754.610752   1183.592474
PE12 -14891.215213   6772.159985 -24666.973870   -293.711599
PE13   4793.629004 -24755.921744  15511.691924    430.543070
PE14  11226.946809 -11112.458367  17847.662186     65.357925
PE15  14903.670221  -6449.077532  24757.499108    705.427982
PE18 -19062.766406  11936.576486 -23027.664964   -707.492464
PE19 -26321.733079 -12449.594272  -5304.256090  -3917.638243
PE21  -2377.826988 -18767.978597  22770.452669   -496.415569
PE24 -16610.390782  22866.286641  -8758.118423   -964.319394
PE25   2087.504284  18922.708618 -22654.926749   -593.386734
PE26  -8480.134131 -28139.877494  -3561.695162  -1880.678964
PE27  15860.219322 -23084.061674   9610.385387   -446.932153
PE30  24711.822677 -13084.064615  -9751.294466  -1023.250452
PE31 -24581.084820  13750.668137   9096.299222   -508.945230
PE33 -16146.069627 -15551.525628 -19321.843685   -455.589959
PE34  16212.373060  15333.394687  19439.311665    -16.165760
PE36   8026.698436  28359.657026   2741.198374   -465.361757
PG01  13487.405296  -6608.629678  21551.639509    247.315103
PG02 -12032.185438  10958.769116 -20402.731606   -636.417303
PG03  22792.790089 -11178.205223   7501.980860   -374.055346
PG04  21526.531732  -2130.416362 -15481.276406    -80.990460
PG05 -19736.613565    298.167565 -17998.303598   -105.472412
PG06  -6161.393788 -25396.478516  -4431.021602    525.429195
PG07   7243.950426 -20941.619739 -13847.830358    283.566081
PG08  25535.827924   5418.555180   5833.746430    -95.313255
PG09  11910.295657 -11308.845955 -20963.161213   -264.054575
PG10  -4621.492607  18983.417932  18000.797251    -13.200704
PG11 -12002.975960 -18246.346571 -15133.894881    -44.751891
PG12 -23516.592126   9125.570752   7874.861284   -307.879990
PG13 -23016.990552 -13458.752833    -99.971394    430.072797
PG14   7352.793637 -19591.837110  16296.136127    -78.698539
PG15 -25928.287580  -2618.422805   5400.346785     -9.832260
PG16  16815.718973   5746.798886 -20165.942376   -526.800654
PG17  -1833.806650 -16680.348679  21011.728607    680.491150
PG18  -6079.335231  22483.969023 -12631.485079    -33.382017
PG19 -13437.279889 -18095.317372  14026.482436    241.459538
PG20 -11031.890451 -10930.662584 -21530.276378    468.042103
PG21  16128.195280   3094.290485  21606.436438    155.388218
PG22  15602.892319  17845.294207  12581.934960    370.829098
PG23 -14453.778471  20116.248204   9385.653335     -0.794367
PG24 -15466.490487   2417.443103  21127.107635     45.904305
PG25 -20027.734017  17162.637136  -1548.742890    395.591768
PG26   7664.696489  14077.769094 -21241.302549    236.673894
PG27  22775.499681  13164.804066  -5219.167189    170.743538
PG29 -14340.246822   8429.720303 -20766.171552   -569.337913
PG30   -575.547187 -26170.524630  -3502.234810   -536.371978
PG31   7105.205336  24620.809580  -6142.136180   -201.155148
PG32   6136.348936  17216.196406  19491.393064   -306.468007
PJ02 -35154.937341  23275.080878   2535.185477     -0.182208
PJ03 -19984.053521  22882.425184 -24616.979325     -5.237809
PJ04 -28378.540352  30512.666630  13163.770602    113.592311
PR01   8166.955393  10031.327553  21978.793673     18.405086
PR02  23438.811588   3711.915330   9486.353129    -23.373535
PR03  23811.291235  -4702.266210  -7913.761150     67.833700
PR04  11009.628707 -10037.089094 -20688.834581    166.055274
PR05  -7742.073675 -10075.211660 -22107.510557    103.422623
PR07 -23390.518832   5065.806538   8777.482562     44.872064
PR08 -10730.021058  10255.548198  20784.967175    -68.228848
PR09 -11050.749975  -3083.669414  22802.713382     89.277002
PR11 -11350.408772  22848.247937   -362.518227     19.034688
PR12   -265.247078  18627.168592 -17390.433379     23.113241
PR13   9965.968343   4736.889209 -23013.206201    -29.229293
PR14  15250.966268 -13849.698488 -15022.395598     24.092489
PR15  11101.322678 -22920.402503   1471.018481     92.756087
PR17  11293.069063  -1510.909455  22831.364794    580.858998
PR18    654.348839 -16014.575306  19848.228441     53.507443
PR19  -9016.638387 -22582.776845   7728.538299   -212.077714
PR20 -15498.682534 -15811.608911 -12621.882016    -82.717593
PR21 -10413.394606   2930.027142 -23096.469817   -352.125153
PR22   -973.160733  16736.261171 -19198.645133     19.505018
PR24  16208.498153  14708.960606  13105.670271    128.419248
PR25 -11845.810159    604.121021 -22576.489447     47.118504
EOF
